[{"OBJECT_NAME":"STARLINK-32636","OBJECT_ID":"2024-231Q","EPOCH":"2026-03-09T16:48:55.764288","MEAN_MOTION":15.30208563,"ECCENTRICITY":0.00010433,"INCLINATION":53.1573,"RA_OF_ASC_NODE":219.3296,"ARG_OF_PERICENTER":53.6147,"MEAN_ANOMALY":306.495,"EPHEMERIS_TYPE":0,"CLASSIFICATION_TYPE":"U","NORAD_CAT_ID":62232,"ELEMENT_SET_NO":999,"REV_AT_EPOCH":7177,"BSTAR":0.0012223511,"MEAN_MOTION_DOT":0.00036029,"MEAN_MOTION_DDOT":0},{"OBJECT_NAME":"CERISE","OBJECT_ID":"1995-033B","EPOCH":"2026-03-09T23:11:27.589056","MEAN_MOTION":15.32047731,"ECCENTRICITY":0.00057118,"INCLINATION":98.325,"RA_OF_ASC_NODE":273.5192,"ARG_OF_PERICENTER":211.8754,"MEAN_ANOMALY":148.214,"EPHEMERIS_TYPE":0,"CLASSIFICATION_TYPE":"U","NORAD_CAT_ID":23606,"ELEMENT_SET_NO":999,"REV_AT_EPOCH":66468,"BSTAR":0.00062940675,"MEAN_MOTION_DOT":0.00019422,"MEAN_MOTION_DDOT":0}]
